{
    "links": {
        "self": "http://www.neowsapp.com/rest/v1/neo/54049788?api_key=iIulBulltgU6a56xZRHN4H3l9WmuAYTsLGpBGhQ2"
    },
    "id": "54049788",
    "neo_reference_id": "54049788",
    "name": "(2020 OR4)",
    "designation": "2020 OR4",
    "nasa_jpl_url": "http://ssd.jpl.nasa.gov/sbdb.cgi?sstr=54049788",
    "absolute_magnitude_h": 25.637,
    "estimated_diameter": {
        "kilometers": {
            "estimated_diameter_min": 0.0198223425,
            "estimated_diameter_max": 0.0443241054
        },
        "meters": {
            "estimated_diameter_min": 19.8223425361,
            "estimated_diameter_max": 44.324105384
        },
        "miles": {
            "estimated_diameter_min": 0.0123170288,
            "estimated_diameter_max": 0.0275417137
        },
        "feet": {
            "estimated_diameter_min": 65.0339342861,
            "estimated_diameter_max": 145.4202979081
        }
    },
    "is_potentially_hazardous_asteroid": false,
    "close_approach_data": [
        {
            "close_approach_date": "2020-07-28",
            "close_approach_date_full": "2020-Jul-28 19:42",
            "epoch_date_close_approach": 1595965320000,
            "relative_velocity": {
                "kilometers_per_second": "23.9201367635",
                "kilometers_per_hour": "86112.4923484985",
                "miles_per_hour": "53506.9539262101"
            },
            "miss_distance": {
                "astronomical": "0.0051433232",
                "lunar": "2.0007527248",
                "kilometers": "769430.195441584",
                "miles": "478101.7535744992"
            },
            "orbiting_body": "Moon"
        },
        {
            "close_approach_date": "2020-07-28",
            "close_approach_date_full": "2020-Jul-28 20:54",
            "epoch_date_close_approach": 1595969640000,
            "relative_velocity": {
                "kilometers_per_second": "22.9096686861",
                "kilometers_per_hour": "82474.8072698207",
                "miles_per_hour": "51246.6378838505"
            },
            "miss_distance": {
                "astronomical": "0.003058093",
                "lunar": "1.189598177",
                "kilometers": "457484.19906191",
                "miles": "284267.499637958"
            },
            "orbiting_body": "Earth"
        },
        {
            "close_approach_date": "2020-10-02",
            "close_approach_date_full": "2020-Oct-02 11:39",
            "epoch_date_close_approach": 1601638740000,
            "relative_velocity": {
                "kilometers_per_second": "18.004200637",
                "kilometers_per_hour": "64815.122293321",
                "miles_per_hour": "40273.5964049805"
            },
            "miss_distance": {
                "astronomical": "0.0672472746",
                "lunar": "26.1591898194",
                "kilometers": "10060049.043465102",
                "miles": "6251024.6117463276"
            },
            "orbiting_body": "Venus"
        }
    ],
    "orbital_data": {
        "orbit_id": "4",
        "orbit_determination_date": "2020-10-11 07:08:44",
        "first_observation_date": "2020-07-20",
        "last_observation_date": "2020-07-26",
        "data_arc_in_days": 6,
        "observations_used": 44,
        "orbit_uncertainty": "8",
        "minimum_orbit_intersection": ".00163795",
        "jupiter_tisserand_invariant": "2.941",
        "epoch_osculation": "2459052.5",
        "eccentricity": ".7752305555730539",
        "semi_major_axis": "2.524424121800486",
        "inclination": "1.049591490778687",
        "ascending_node_longitude": "119.9846611516508",
        "orbital_period": "1465.014452005149",
        "perihelion_distance": ".5674134073550766",
        "perihelion_argument": "276.6818508809424",
        "aphelion_distance": "4.481434836245895",
        "perihelion_time": "2459105.220731618626",
        "mean_anomaly": "347.0448626928367",
        "mean_motion": ".2457313642928724",
        "equinox": "J2000",
        "orbit_class": {
            "orbit_class_type": "APO",
            "orbit_class_description": "Near-Earth asteroid orbits which cross the Earth’s orbit similar to that of 1862 Apollo",
            "orbit_class_range": "a (semi-major axis) > 1.0 AU; q (perihelion) < 1.017 AU"
        }
    },
    "is_sentry_object": false
}